{
"type": "FeatureCollection",
"name": "JJP",
"crs": { "type": "name", "properties": { "name": "urn:ogc:def:crs:EPSG::3857" } },
"features": [
{"type":"Feature","properties":{"CompanyCode":"JJP"},"geometry":{"type":"MultiPolygon","coordinates":[[[[11221108.9018,210854.079599998891354],[11220982.5335,211008.50620000064373],[11220802.87049999833107,211230.249499998986721],[11220725.1532,211332.341299999505281],[11220623.4249,211459.9847999997437],[11220602.0205,211486.841899998486042],[11220404.631700001657009,211628.618999999016523],[11220370.568999998271465,211645.976199999451637],[11220291.269499998539686,211754.319200001657009],[11220257.9274,211777.934399999678135],[11220210.32209999859333,211811.651500001549721],[11220057.1771,211920.118900001049042],[11219840.745000001043081,212069.196600001305342],[11219809.1923,212090.929999999701977],[11219539.382399998605251,212275.08839999884367],[11219466.8994,212324.9087999984622],[11219312.226799998432398,212431.221400000154972],[11219307.1983,212434.718199998140335],[11219131.363200001418591,212556.993000000715256],[11219079.7238,212593.263000000268221],[11218951.8231,212683.096599999815226],[11218858.9109,212747.484200000762939],[11218681.817899998277426,212870.146600000560284],[11218675.4008,212874.591400001198053],[11218420.46339999884367,213044.744800001382828],[11218378.253899998962879,213074.496100001037121],[11218303.083999998867512,213127.479299999773502],[11218269.353799998760223,213147.168200001120567],[11218211.8503,213198.039599999785423],[11218176.099399998784065,213222.849500000476837],[11218025.006499998271465,213319.975900001823902],[11217953.4205,213368.373500000685453],[11217673.6499,213557.519600000232458],[11217452.6364,213708.017299998551607],[11217446.158,213712.428700000047684],[11217443.1056,213714.408700000494719],[11217435.4335,213719.385600000619888],[11217432.910799998790026,213721.022100001573563],[11217431.228,213722.112399999052286],[11217393.383499998599291,213746.663499999791384],[11217168.9217,213892.271600000560284],[11217087.025400001555681,213945.39750000089407],[11216820.596,214129.022300001233816],[11216809.844300001859665,214136.153000000864267],[11216519.240600001066923,214328.886500000953674],[11216456.8378,214372.308499999344349],[11216304.446899998933077,214478.346799999475479],[11216129.291299998760223,214599.730900000780821],[11216082.859499998390675,214631.084800001233816],[11215857.3534,214783.362300001084805],[11215624.8336,214943.767900001257658],[11215614.0528,214951.179900001734495],[11215475.3748,215046.524099998176098],[11215318.31529999896884,215156.7685999982059],[11215259.7865,215197.851700000464916],[11215008.4815,215368.937199998646975],[11214951.658300001174212,215409.707400001585484],[11214839.9808,215489.835400000214577],[11214643.437800001353025,215625.245700001716614],[11214605.6067,215651.309900000691414],[11214599.692699998617172,215655.330600000917912],[11214408.5291,215785.296500001102686],[11214216.1813,215921.279500000178814],[11214183.152199998497963,215944.629900000989437],[11214006.449,216070.60080000013113],[11213836.092500001192093,216190.435699999332428],[11213767.5401,216239.270300000905991],[11213705.1589,216283.70890000090003],[11213574.225000001490116,216376.982099998742342],[11213534.420400001108646,216404.765000000596046],[11213527.365600001066923,216409.6891999989748],[11213514.2698,216418.829900000244379],[11213494.661899998784065,216432.515900000929832],[11213483.024500001221895,216440.638599999248981],[11213472.438900001347065,216448.027199998497963],[11213462.588799998164177,216454.902399998158216],[11213460.914099998772144,216456.071299999952316],[11213459.424800001084805,216457.11089999973774],[11213451.2636,216462.807199999690056],[11213445.5071,216457.76240000128746],[11213427.0962999984622,216471.229200001806021],[11213418.0081,216477.876800000667572],[11213350.279,216527.417700000107288],[11213127.276299998164177,216680.886599998921156],[11212880.463799998164177,216849.570999998599291],[11212803.3739,216906.089899998158216],[11212715.93,216970.200100000947714],[11212685.820799998939037,216988.060300000011921],[11212676.7749,216993.426300000399351],[11212609.8094,217002.289799999445677],[11212551.0614,217022.071800000965595],[11212413.238400001078844,217052.695500001311302],[11212243.7887,217090.346599999815226],[11211984.323399998247623,217157.612799998372793],[11211970.54280000180006,217195.044199999421835],[11211902.791900001466274,217317.186299998313189],[11211811.633699998259544,217485.844500001519918],[11211800.150400001555681,217507.038800001144409],[11211713.208700001239777,217667.502500001341105],[11211694.0258,217676.849899999797344],[11211621.566799998283386,217685.919100001454353],[11211584.2837999984622,217697.072900000959635],[11211571.2846,217700.961800001561642],[11211429.678800001740456,217722.094700001180172],[11211325.631700001657009,217739.344900000840425],[11211193.121399998664856,217761.3141999989748],[11211136.873,217770.695099998265505],[11211073.862799998372793,217781.20380000025034],[11210897.672600001096725,217810.587999999523163],[11210640.2637,217846.164000000804663],[11210592.615899998694658,217848.87779999896884],[11210427.192699998617172,217878.696199998259544],[11210420.2804,217879.615699999034405],[11210320.0312,217892.952799998223782],[11210258.1219,217901.189100001007318],[11210231.9767,217897.551300000399351],[11210130.409400001168251,217918.642599999904633],[11210066.629,217923.174800001084805],[11209978.2029,217929.458500001579523],[11209908.399300001561642,217947.185899998992682],[11209814.643399998545647,217957.036899998784065],[11209799.542100001126528,217958.623599998652935],[11209723.117199998348951,217973.359499998390675],[11209673.4824,217974.742600001394749],[11209621.8776,217991.451999999582767],[11209603.6793,217993.136199999600649],[11209561.357700001448393,217999.64469999819994],[11209459.7564,218015.269900001585484],[11209412.770100001245737,218017.982900001108646],[11209311.6749,218034.577300000935793],[11209294.324299998581409,218037.425400000065565],[11209189.437800001353025,218048.85869999974966],[11209165.6237,218060.209600001573563],[11209106.0702,218070.264299999922514],[11208983.271499998867512,218091.803100001066923],[11208935.618500001728535,218089.719500001519918],[11208896.7108,218096.954799998551607],[11208871.0423,218107.108199998736382],[11208811.483399998396635,218111.965900000184774],[11208786.7784,218119.65819999948144],[11208612.770100001245737,218173.837999999523163],[11208598.651299998164177,218178.120400000363588],[11208322.7159,218261.8141999989748],[11208280.1448,218311.961300000548363],[11208180.1739,218408.539500001817942],[11208041.8668,218554.727899998426437],[11207832.335900001227856,218763.467599999159575],[11207791.429900001734495,218804.219200000166893],[11207722.656,218872.733399998396635],[11207491.7984,219098.330299999564886],[11207318.566599998623133,219265.3429000005126],[11207109.902199998497963,219474.234200000762939],[11207104.361699998378754,219479.770399998873472],[11206857.8642,219726.07880000025034],[11206676.1701,219903.495000001043081],[11206486.8103,220092.912399999797344],[11206351.9474,220227.4386],[11206297.185199998319149,220282.063999999314547],[11206085.5812,220491.294300001114607],[11206003.355500001460314,220572.597600001841784],[11205819.804499998688698,220747.884899999946356],[11205821.6981,220750.133799999952316],[11205763.9051,220804.482900001108646],[11205674.600900001823902,220884.221999999135733],[11205606.399300001561642,220948.495999999344349],[11205508.926199998706579,221040.355799999088049],[11205374.561,221161.384300000965595],[11205425.7938,221247.346799999475479],[11205541.6595,221423.398200001567602],[11205604.3726,221526.642499998211861],[11205679.019299998879433,221649.533100001513958],[11205756.7137,221777.576799999922514],[11205822.213599998503923,221885.523200001567602],[11205873.7474,221972.394499998539686],[11205890.631499998271465,222000.856199998408556],[11206012.065900001674891,222184.897199999541044],[11206023.879700001329184,222204.778900001198053],[11206142.007199998944998,222403.576699998229742],[11206150.390299998223782,222397.932700000703335],[11206152.4278,222394.382100000977516],[11206347.9773,222053.614599999040365],[11206638.576299998909235,221547.213100001215935],[11206773.3385,221623.500399999320507],[11206779.4694,221626.948600001633167],[11206958.758299998939037,221727.785799998790026],[11206967.0499,221732.485300000756979],[11207139.940699998289347,221830.475900001823902],[11207144.8688,221833.294599998742342],[11207294.37049999833107,221918.801500000059605],[11207322.214899998158216,221934.756000000983477],[11207499.129299998283386,222036.125399999320507],[11207419.84910000115633,222174.529199998825788],[11207276.6243,222432.931699998676777],[11207134.1873,222685.204100001603365],[11206985.9406,222951.875100001692772],[11207140.833099998533726,223035.028599999845028],[11207143.015099998563528,223036.199999999254942],[11207359.315699998289347,223153.614599999040365],[11207548.285999998450279,223256.193199999630451],[11207549.7359,223256.987199999392033],[11207759.052000001072884,223371.6239],[11207761.518,223372.974399998784065],[11207875.168499998748302,223434.516399998217821],[11208059.01240000128746,223534.067800000309944],[11208062.1602,223535.772399999201298],[11208255.41780000180006,223642.119199998676777],[11208408.3178,223726.257500000298023],[11208410.2199,223727.304200001060963],[11208620.869600001722574,223842.155499998480082],[11208771.5927,223924.333200000226498],[11208772.422600001096725,223924.785700000822544],[11208717.050900001078844,224021.696699999272823],[11208711.803,224030.881499998271465],[11208472.4657,224449.767400000244379],[11208435.881299998611212,224516.211599998176098],[11208353.9661,224657.394000001251698],[11208275.6811,224796.787799999117851],[11208472.8649,224909.478300001472235],[11208474.6827,224910.517200000584126],[11208637.510499998927116,225001.561200000345707],[11208687.588599998503923,225029.562100000679493],[11208823.384100001305342,225104.839000001549721],[11208986.913800001144409,225195.489900000393391],[11208992.096,225184.840199999511242],[11209190.304000001400709,224838.134300000965595],[11209227.5761,224773.474199999123812],[11209488.7885,224320.319499999284744],[11209628.644499998539686,224396.862399999052286],[11209668.386300001293421,224418.613000001758337],[11209672.8008,224421.028999999165535],[11209673.4828,224421.402199998497963],[11209675.31529999896884,224422.405200000852346],[11209675.4492,224422.479400001466274],[11209676.7306,224423.189699999988079],[11209678.1459,224423.974199999123812],[11209688.125100001692772,224429.50620000064373],[11209720.5568,224447.484600000083447],[11209727.568799998611212,224451.371700000017881],[11209833.740899998694658,224510.227699998766184],[11209836.3724,224506.632500000298023],[11209838.977699998766184,224503.073399998247623],[11209867.3556,224460.815799999982119],[11209964.1122,224299.703099999576807],[11210041.441599998623133,224166.539900001138449],[11210182.5643,223933.886199999600649],[11210234.4243,223843.238899998366833],[11210276.5563,223776.938099998980761],[11210304.755199998617172,223728.316599998623133],[11210353.2656,223648.865100000053644],[11210367.470400001853704,223657.440099999308586],[11210405.275199998170137,223678.323800001293421],[11210409.5405,223680.739700000733137],[11210475.1168,223717.673799999058247],[11210500.576699998229742,223732.297699999064207],[11210530.1475,223748.676399998366833],[11210662.3693,223823.647999998182058],[11210704.1523,223847.481699999421835],[11210705.1552,223848.053800001740456],[11210793.0159,223898.171000000089407],[11210879.5651,223947.809900000691414],[11210910.2375,223965.401599999517202],[11211024.311299998313189,224031.299100000411272],[11211051.3349,224046.549699999392033],[11211051.461199998855591,224046.620999999344349],[11211163.978799998760223,223839.222500000149012],[11211165.439599998295307,223837.788499999791384],[11211169.657200001180172,223833.64809999987483],[11211186.8277,223863.656800001859665],[11211189.7865,223867.434200000017881],[11211192.7121,223870.800999999046326],[11211194.025600001215935,223871.972300000488758],[11211194.6221,223872.318199999630451],[11211196.4712,223873.144200000911951],[11211199.386300001293421,223873.5168999992311],[11211201.005800001323223,223873.366300001740456],[11211204.056699998676777,223872.416600000113249],[11211228.8138,223861.182599999010563],[11211305.0436,223826.738000001758337],[11211326.8132,223817.618299998342991],[11211406.6633,223781.000100001692772],[11211433.950399998575449,223769.611699998378754],[11211486.607500001788139,223747.634899999946356],[11211546.728799998760223,223719.014899998903275],[11211625.104600001126528,223683.264299999922514],[11211678.7643,223663.673099998384714],[11211695.9771,223652.512600000947714],[11211760.5365,223624.251800000667572],[11211828.5665,223595.050700001418591],[11211903.465799998492002,223561.959199998527765],[11211980.3398,223527.552099999040365],[11212061.878199998289347,223489.564599998295307],[11212073.1444,223484.339499998837709],[11212077.68,223486.945500001311302],[11212082.2155,223489.551500000059605],[11212182.120700001716614,223443.896200001239777],[11212221.1732,223426.049600001424551],[11212227.0053,223423.384399998933077],[11212392.607299998402596,223349.44310000166297],[11212503.039700001478195,223300.135099999606609],[11212713.8823,223205.993599999696016],[11212815.7267,223160.74100000038743],[11212981.2683,223087.1858000010252],[11213029.344099998474121,223065.824200000613928],[11213067.3244,223048.948300000280142],[11213238.4646,222972.905200000852346],[11213259.538400001823902,222963.330099999904633],[11213533.1659,222839.003400001674891],[11213624.969500001519918,222798.534000001847744],[11213748.5224,222744.068599998950958],[11213814.9712,222714.776299998164177],[11214024.6673,222618.942499998956919],[11214163.228799998760223,222556.950800001621246],[11214322.4778,222485.703600000590086],[11214395.973299998790026,222452.819200001657009],[11214430.5264,222437.358899999409914],[11214438.9582,222433.586300000548363],[11214692.656,222320.07319999858737],[11214805.5526,222269.682599999010563],[11215067.3319,222152.839000001549721],[11215081.059999998658895,222146.670200001448393],[11215207.0407,222090.060400001704693],[11215356.467099998146296,222024.085299998521805],[11215375.8567,222015.524300001561642],[11215536.572500001639128,221941.393699999898672],[11215550.754700001329184,221934.852099999785423],[11215607.144900001585484,221909.602800000458956],[11215646.178,221892.125300001353025],[11215648.3412000015378,221891.156700000166893],[11215652.319699998944998,221889.375399999320507],[11215656.868099998682737,221887.338799998164177],[11215665.2234,221883.597500000149012],[11215675.811099998652935,221878.856699999421835],[11215679.5434,221877.185600001364946],[11215684.504700001329184,221874.964099999517202],[11215688.2685999982059,221873.278799999505281],[11215705.2808,221865.661499999463558],[11215728.4326,221855.211800001561642],[11215885.207400001585484,221784.450800001621246],[11216031.4672,221716.996899999678135],[11216096.6186,221686.949599999934435],[11216341.110599998384714,221580.618200000375509],[11216376.4476,221564.422699999064207],[11216671.5889,221429.155099999159575],[11216683.617199998348951,221423.735800001770258],[11216911.220800001174212,221321.189800001680851],[11217188.9175,221196.074200000613928],[11217218.8614,221182.421900000423193],[11217538.446199998259544,221036.71339999884367],[11217540.931699998676777,221035.580099999904633],[11217796.424400001764297,220921.241700001060963],[11217826.7418,220938.606699999421835],[11218005.0293,221040.724899999797344],[11218068.4417,221077.045800000429153],[11218171.1604,221135.193199999630451],[11218328.305599998682737,221224.150199998170137],[11218450.9287,221293.564699999988079],[11218527.2885,221337.024900000542402],[11218688.274099998176098,221428.649700000882149],[11218807.988699998706579,221496.78489999845624],[11218865.518399998545647,221529.605000000447035],[11219036.676199998706579,221627.249200001358986],[11219119.913800001144409,221674.735300000756979],[11219229.0229,221736.544799998402596],[11219363.604400001466274,221812.784099999815226],[11219399.6945,221833.288899999111891],[11219555.8055,221921.984700001776218],[11219585.0455,221938.597600001841784],[11219736.9976,222024.936700001358986],[11219828.471900001168251,222076.912099998444319],[11219905.2698,222120.99439999833703],[11220037.4652,222196.875199999660254],[11220086.6849,222224.761799998581409],[11220268.44200000166893,222327.740299999713898],[11220275.8697,222331.938299998641014],[11220447.423500001430511,222428.897700000554323],[11220462.335299998521805,222437.325599998235703],[11220706.7003,222220.65819999948144],[11220879.6617,222069.362300001084805],[11221042.145599998533726,221776.833500001579523],[11221119.296500001102686,221639.480099998414516],[11221179.7973,221531.769499998539686],[11221335.1534,221257.638300001621246],[11221472.5383,221010.976799998432398],[11221590.688499998301268,220799.619199998676777],[11221619.963799998164177,220747.249000001698732],[11221728.2264,220552.694600000977516],[11221732.8237,220544.432900000363588],[11221847.440499998629093,220338.46000000089407],[11222058.1135,219965.792300000786781],[11222058.140999998897314,219965.743700001388788],[11222119.839000001549721,219856.60359999909997],[11222254.782200001180172,219612.659600000828505],[11222255.2696,219611.778299998492002],[11222362.635499998927116,219417.687300000339746],[11222577.173,219039.564100001007318],[11222579.444699998944998,219035.589200001209974],[11222812.155299998819828,218628.393500000238419],[11222824.845199998468161,218606.188799999654293],[11222826.4765,218603.271000001579523],[11223103.8565,218107.122900001704693],[11223107.1483,218101.245299998670816],[11223297.6371,217761.117800001055002],[11223428.417100001126528,217528.462099999189377],[11223571.1728,217270.393699999898672],[11223591.734000001102686,217233.22410000115633],[11223593.077799998223782,217230.794900000095367],[11223593.9302,217229.253899998962879],[11223594.0513,217229.035000000149012],[11223595.511300001293421,217226.395799998193979],[11223596.971700001507998,217223.75560000166297],[11223597.9454,217221.995400000363588],[11223599.152199998497963,217219.813799999654293],[11223600.5224,217217.378699999302626],[11223604.4589,217210.383200000971556],[11223605.4606,217208.603100001811981],[11223620.121800001710653,217182.548599999397993],[11223752.389400001615286,216947.494600001722574],[11223917.185600001364946,216655.176899999380112],[11224088.8083,216347.135499998927116],[11224106.4162,216315.531700000166893],[11224288.715799998492002,215992.550599999725819],[11224441.2914,215721.234499998390675],[11224558.704999998211861,215511.235700000077486],[11224554.042599998414516,215508.218600001186132],[11224554.914700001478195,215505.710299998521805],[11224555.688299998641014,215503.485399998724461],[11224575.3598,215446.907999999821186],[11224667.098499998450279,215183.057700000703335],[11224590.5185999982059,215090.390399999916553],[11224468.7258,214943.012099999934435],[11224394.7344,214853.476700000464916],[11224385.565200001001358,214842.38120000064373],[11224303.403499998152256,214742.95890000090003],[11224183.015299998223782,214597.279199998825788],[11224104.033100001513958,214501.703899998217821],[11224043.462499998509884,214428.408100001513958],[11223890.390500001609325,214243.176899999380112],[11223822.5022,214161.025800000876188],[11223816.107500001788139,214153.287599999457598],[11223749.4947,214072.679699998348951],[11223746.9189000017941,214069.562699999660254],[11223609.2463,213902.965300001204014],[11223573.3776,213859.560400001704693],[11223540.9725,213820.347100000828505],[11223498.713,213769.208700001239777],[11223496.585,213766.633600000292063],[11223451.3099,213711.845899999141693],[11223400.993099998682737,213650.957100000232458],[11223341.282000001519918,213578.700300000607967],[11223332.490200001746416,213568.061299998313189],[11223309.19819999858737,213539.875500001013279],[11223259.443999998271465,213479.667300000786781],[11223208.621800001710653,213418.166799999773502],[11223170.4534,213371.978700000792742],[11223091.6144,213276.574499998241663],[11223010.901999998837709,213178.903000000864267],[11222977.9166,213138.986800000071526],[11222922.0869,213071.426100000739098],[11222822.502300001680851,212950.916600000113249],[11222822.0126,212950.324000000953674],[11222794.245900001376867,212916.722800001502037],[11222776.5760000012815,212895.34010000154376],[11222731.4971,212840.788899999111891],[11222696.390500001609325,212798.305599998682737],[11222688.136999998241663,212788.317800000309944],[11222645.0953,212736.231899999082088],[11222617.7604,212703.153000000864267],[11222570.5806,212646.059300001710653],[11222542.3854,212611.939500000327826],[11222534.1996,212602.033599998801947],[11222414.865600001066923,212457.623599998652935],[11222333.5387,212359.206999998539686],[11222328.248100001364946,212352.804699998348951],[11222252.794300001114607,212261.495299998670816],[11222246.90989999845624,212254.374299999326468],[11222213.908300001174212,212214.437800001353025],[11222145.5198,212131.678100001066923],[11222133.3418,212116.940999999642372],[11222076.878600001335144,212048.612399999052286],[11221987.5077,211940.460499998182058],[11221971.1347,211920.646999999880791],[11221970.7179,211920.142499998211861],[11221887.224399998784065,211819.103100001811981],[11221867.1385000012815,211794.796000000089407],[11221851.8191,211776.25730000063777],[11221841.2115,211763.4206000007689],[11221659.004999998956919,211542.922699999064207],[11221653.1849,211535.879599999636412],[11221652.6345,211535.213500000536442],[11221572.164099998772144,211437.831700000911951],[11221570.297600001096725,211435.572900000959635],[11221447.0937,211286.476500000804663],[11221431.50959999859333,211267.617300000041723],[11221429.0167,211264.600499998778105],[11221427.029599998146296,211262.195700000971556],[11221423.1529,211257.504200000315905],[11221340.515500001609325,211157.499600000679493],[11221298.954,211107.203400000929832],[11221289.8242,211096.154699999839067],[11221272.818,211075.574400000274181],[11221242.327599998563528,211038.675900001078844],[11221218.125999998301268,211009.388099998235703],[11221202.2265,210990.146999999880791],[11221171.5781,210953.057199999690056],[11221169.029800001531839,210949.973200000822544],[11221157.9194,210936.527699999511242],[11221146.9621,210923.267700001597404],[11221142.4413,210917.796700000762939],[11221127.5405,210899.76410000026226],[11221121.7491,210892.75560000166297],[11221116.968899998813868,210886.970800001174212],[11221111.1179,210879.890099998563528],[11221104.722800001502037,210872.15089999884367],[11221107.928100001066923,210867.893399998545647],[11221110.4556,210864.153499998152256],[11221111.8052,210862.186799999326468],[11221112.4047,210861.312800001353025],[11221112.880199998617172,210860.407200001180172],[11221113.1928,210859.7060999982059],[11221113.516199998557568,210858.980399999767542],[11221113.5328,210858.943199999630451],[11221112.1979,210857.541299998760223],[11221108.9018,210854.079599998891354]]]]}}
]
}
